EUTELSAT QUANTUM        
1 49056U 21069B   25298.19921069  .00000138  00000+0  00000+0 0  9995
2 49056   0.0538  66.3929 0002509 161.8102 285.0879  1.00271718 15576
EUTELSAT KONNECT VHTS   
1 53765U 22110A   25298.26169766  .00000030  00000+0  00000+0 0  9992
2 53765   0.0569  92.7551 0002601  95.8718 302.2145  1.00269655  4470
EUTELSAT HOTBIRD 13F    
1 54048U 22134A   25297.26473020  .00000100  00000+0  00000+0 0  9991
2 54048   0.0500 285.5315 0002079  80.8484 134.8620  1.00273698 11010
EUTELSAT HOTBIRD 13G    
1 54225U 22146A   25298.04963840  .00000100  00000+0  00000+0 0  9992
2 54225   0.0433 236.2304 0001992 297.3045 251.0332  1.00272213  5101
EUTELSAT 10B            
1 54259U 22157A   25298.26308434  .00000081  00000+0  00000+0 0  9995
2 54259   0.0590  90.6468 0001502  34.3759  13.6141  1.00273871 10672
EUTELSAT 36D            
1 59346U 24059A   25298.26819770  .00000168  00000+0  00000+0 0  9996
2 59346   0.0021 200.0631 0000272 225.6822 100.5789  1.00272246  5797
